SL-4 R/B                
1 39679U 14021B   26036.67310653  .00019171  00000+0  43274-3 0  9991
2 39679  51.6065 133.3414 0099047 346.3080  13.5221 15.38168742651349
ALOS-2                  
1 39766U 14029A   26036.72854250  .00000681  00000+0  98085-4 0  9995
2 39766  97.9220 135.7857 0001504  96.2498 263.8885 14.79485955632149
YAOGAN-29               
1 41038U 15069A   26036.74480093  .00000193  00000+0  30452-4 0  9999
2 41038  98.0172  65.0836 0002847  89.5243 270.6296 14.82956195551143
ASTRO-H (HITOMI)        
1 41337U 16012A   26036.63784874  .00005379  00000+0  31905-3 0  9996
2 41337  30.9980 203.3474 0009867  10.3464 349.7375 15.09770283547387
HXMT (HUIYAN)           
1 42758U 17034A   26036.78323081  .00011005  00000+0  55059-3 0  9993
2 42758  43.0133 194.0008 0031170  30.6894 329.5769 15.17042419477694
CZ-2C R/B               
1 43521U 18054D   26036.69356123  .00383685  57499-4  97534-3 0  9997
2 43521  35.1296 163.7715 0013222 352.0460   8.0068 15.94208740423767
SAOCOM 1A               
1 43641U 18076A   26036.69296704  .00001256  00000+0  16435-3 0  9995
2 43641  97.8863 225.3197 0001453  85.8304 274.3075 14.82156874396621
H-2A R/B                
1 43682U 18084L   26036.51776264  .00029673  00000+0  73726-3 0  9993
2 43682  98.8756 247.0647 0026298 133.5764 226.7667 15.39926733400822
SAOCOM 1B               
1 46265U 20059A   26036.72422046  .00000453  00000+0  63507-4 0  9999
2 46265  97.8858 224.4487 0001315  81.8809 278.2553 14.82159716294017
CSS (TIANHE)            
1 48274U 21035A   26036.70484920  .00033602  00000+0  41781-3 0  9994
2 48274  41.4677  42.5669 0005508   7.6510 352.4412 15.59253081272613
COSMOS 2550             
1 48865U 21056A   26036.69603288  .00001670  00000+0  56577-4 0  9991
2 48865  67.1452 137.7073 0008290 269.7917  90.2287 15.33834337258559
CZ-2C R/B               
1 52794U 22058K   26036.40616301  .00043938  00000+0  69408-3 0  9998
2 52794  50.1890 124.0666 0042367  63.8858 296.6462 15.51968467205113
