CCSDS_OMM_VERS = 2.0
CREATION_DATE  = 
ORIGINATOR     = 

OBJECT_NAME    = SL-4 R/B
OBJECT_ID      = 2014-021B
CENTER_NAME    = EARTH
REF_FRAME      = TEME
TIME_SYSTEM    = UTC
MEAN_ELEMENT_THEORY = SGP/SGP4

EPOCH          = 2026-02-05T16:09:16.404192
MEAN_MOTION    = 15.38168742
ECCENTRICITY   = .00990479
INCLINATION    = 51.6065
RA_OF_ASC_NODE = 133.3414
ARG_OF_PERICENTER = 346.3080
MEAN_ANOMALY   = 13.5221

EPHEMERIS_TYPE = 0
CLASSIFICATION_TYPE = U
NORAD_CAT_ID   = 39679
ELEMENT_SET_NO = 999
REV_AT_EPOCH   = 65134
BSTAR          = .43273812E-3
MEAN_MOTION_DOT = .19171E-3
MEAN_MOTION_DDOT = 0

CCSDS_OMM_VERS = 2.0
CREATION_DATE  = 
ORIGINATOR     = 

OBJECT_NAME    = ALOS-2
OBJECT_ID      = 2014-029A
CENTER_NAME    = EARTH
REF_FRAME      = TEME
TIME_SYSTEM    = UTC
MEAN_ELEMENT_THEORY = SGP/SGP4

EPOCH          = 2026-02-05T17:29:06.072000
MEAN_MOTION    = 14.79485955
ECCENTRICITY   = .00015045
INCLINATION    = 97.9220
RA_OF_ASC_NODE = 135.7857
ARG_OF_PERICENTER = 96.2498
MEAN_ANOMALY   = 263.8885

EPHEMERIS_TYPE = 0
CLASSIFICATION_TYPE = U
NORAD_CAT_ID   = 39766
ELEMENT_SET_NO = 999
REV_AT_EPOCH   = 63214
BSTAR          = .98084544E-4
MEAN_MOTION_DOT = .681E-5
MEAN_MOTION_DDOT = 0

CCSDS_OMM_VERS = 2.0
CREATION_DATE  = 
ORIGINATOR     = 

OBJECT_NAME    = YAOGAN-29
OBJECT_ID      = 2015-069A
CENTER_NAME    = EARTH
REF_FRAME      = TEME
TIME_SYSTEM    = UTC
MEAN_ELEMENT_THEORY = SGP/SGP4

EPOCH          = 2026-02-05T17:52:30.800352
MEAN_MOTION    = 14.82956195
ECCENTRICITY   = .00028475
INCLINATION    = 98.0172
RA_OF_ASC_NODE = 65.0836
ARG_OF_PERICENTER = 89.5243
MEAN_ANOMALY   = 270.6296

EPHEMERIS_TYPE = 0
CLASSIFICATION_TYPE = U
NORAD_CAT_ID   = 41038
ELEMENT_SET_NO = 999
REV_AT_EPOCH   = 55114
BSTAR          = .30451948E-4
MEAN_MOTION_DOT = .193E-5
MEAN_MOTION_DDOT = 0

CCSDS_OMM_VERS = 2.0
CREATION_DATE  = 
ORIGINATOR     = 

OBJECT_NAME    = ASTRO-H (HITOMI)
OBJECT_ID      = 2016-012A
CENTER_NAME    = EARTH
REF_FRAME      = TEME
TIME_SYSTEM    = UTC
MEAN_ELEMENT_THEORY = SGP/SGP4

EPOCH          = 2026-02-05T15:18:30.131136
MEAN_MOTION    = 15.09770283
ECCENTRICITY   = .00098672
INCLINATION    = 30.9980
RA_OF_ASC_NODE = 203.3474
ARG_OF_PERICENTER = 10.3464
MEAN_ANOMALY   = 349.7375

EPHEMERIS_TYPE = 0
CLASSIFICATION_TYPE = U
NORAD_CAT_ID   = 41337
ELEMENT_SET_NO = 999
REV_AT_EPOCH   = 54738
BSTAR          = .31904808E-3
MEAN_MOTION_DOT = .5379E-4
MEAN_MOTION_DDOT = 0

CCSDS_OMM_VERS = 2.0
CREATION_DATE  = 
ORIGINATOR     = 

OBJECT_NAME    = HXMT (HUIYAN)
OBJECT_ID      = 2017-034A
CENTER_NAME    = EARTH
REF_FRAME      = TEME
TIME_SYSTEM    = UTC
MEAN_ELEMENT_THEORY = SGP/SGP4

EPOCH          = 2026-02-05T18:47:51.141984
MEAN_MOTION    = 15.17042419
ECCENTRICITY   = .00311704
INCLINATION    = 43.0133
RA_OF_ASC_NODE = 194.0008
ARG_OF_PERICENTER = 30.6894
MEAN_ANOMALY   = 329.5769

EPHEMERIS_TYPE = 0
CLASSIFICATION_TYPE = U
NORAD_CAT_ID   = 42758
ELEMENT_SET_NO = 999
REV_AT_EPOCH   = 47769
BSTAR          = .55058907E-3
MEAN_MOTION_DOT = .11005E-3
MEAN_MOTION_DDOT = 0

CCSDS_OMM_VERS = 2.0
CREATION_DATE  = 
ORIGINATOR     = 

OBJECT_NAME    = CZ-2C R/B
OBJECT_ID      = 2018-054D
CENTER_NAME    = EARTH
REF_FRAME      = TEME
TIME_SYSTEM    = UTC
MEAN_ELEMENT_THEORY = SGP/SGP4

EPOCH          = 2026-02-05T16:38:43.690272
MEAN_MOTION    = 15.94208740
ECCENTRICITY   = .00132226
INCLINATION    = 35.1296
RA_OF_ASC_NODE = 163.7715
ARG_OF_PERICENTER = 352.0460
MEAN_ANOMALY   = 8.0068

EPHEMERIS_TYPE = 0
CLASSIFICATION_TYPE = U
NORAD_CAT_ID   = 43521
ELEMENT_SET_NO = 999
REV_AT_EPOCH   = 42376
BSTAR          = .97534015E-3
MEAN_MOTION_DOT = .383685E-2
MEAN_MOTION_DDOT = .57498811E-4

CCSDS_OMM_VERS = 2.0
CREATION_DATE  = 
ORIGINATOR     = 

OBJECT_NAME    = SAOCOM 1A
OBJECT_ID      = 2018-076A
CENTER_NAME    = EARTH
REF_FRAME      = TEME
TIME_SYSTEM    = UTC
MEAN_ELEMENT_THEORY = SGP/SGP4

EPOCH          = 2026-02-05T16:37:52.352256
MEAN_MOTION    = 14.82156874
ECCENTRICITY   = .00014539
INCLINATION    = 97.8863
RA_OF_ASC_NODE = 225.3197
ARG_OF_PERICENTER = 85.8304
MEAN_ANOMALY   = 274.3075

EPHEMERIS_TYPE = 0
CLASSIFICATION_TYPE = U
NORAD_CAT_ID   = 43641
ELEMENT_SET_NO = 999
REV_AT_EPOCH   = 39662
BSTAR          = .16434933E-3
MEAN_MOTION_DOT = .1256E-4
MEAN_MOTION_DDOT = 0

CCSDS_OMM_VERS = 2.0
CREATION_DATE  = 
ORIGINATOR     = 

OBJECT_NAME    = H-2A R/B
OBJECT_ID      = 2018-084L
CENTER_NAME    = EARTH
REF_FRAME      = TEME
TIME_SYSTEM    = UTC
MEAN_ELEMENT_THEORY = SGP/SGP4

EPOCH          = 2026-02-05T12:25:34.692096
MEAN_MOTION    = 15.39926733
ECCENTRICITY   = .00262985
INCLINATION    = 98.8756
RA_OF_ASC_NODE = 247.0647
ARG_OF_PERICENTER = 133.5764
MEAN_ANOMALY   = 226.7667

EPHEMERIS_TYPE = 0
CLASSIFICATION_TYPE = U
NORAD_CAT_ID   = 43682
ELEMENT_SET_NO = 999
REV_AT_EPOCH   = 40082
BSTAR          = .737259E-3
MEAN_MOTION_DOT = .29673E-3
MEAN_MOTION_DDOT = 0

CCSDS_OMM_VERS = 2.0
CREATION_DATE  = 
ORIGINATOR     = 

OBJECT_NAME    = SAOCOM 1B
OBJECT_ID      = 2020-059A
CENTER_NAME    = EARTH
REF_FRAME      = TEME
TIME_SYSTEM    = UTC
MEAN_ELEMENT_THEORY = SGP/SGP4

EPOCH          = 2026-02-05T17:22:52.647744
MEAN_MOTION    = 14.82159716
ECCENTRICITY   = .00013152
INCLINATION    = 97.8858
RA_OF_ASC_NODE = 224.4487
ARG_OF_PERICENTER = 81.8809
MEAN_ANOMALY   = 278.2553

EPHEMERIS_TYPE = 0
CLASSIFICATION_TYPE = U
NORAD_CAT_ID   = 46265
ELEMENT_SET_NO = 999
REV_AT_EPOCH   = 29401
BSTAR          = .63507043E-4
MEAN_MOTION_DOT = .453E-5
MEAN_MOTION_DDOT = 0

CCSDS_OMM_VERS = 2.0
CREATION_DATE  = 
ORIGINATOR     = 

OBJECT_NAME    = CSS (TIANHE)
OBJECT_ID      = 2021-035A
CENTER_NAME    = EARTH
REF_FRAME      = TEME
TIME_SYSTEM    = UTC
MEAN_ELEMENT_THEORY = SGP/SGP4

EPOCH          = 2026-02-05T16:54:58.970880
MEAN_MOTION    = 15.59253081
ECCENTRICITY   = .00055086
INCLINATION    = 41.4677
RA_OF_ASC_NODE = 42.5669
ARG_OF_PERICENTER = 7.6510
MEAN_ANOMALY   = 352.4412

EPHEMERIS_TYPE = 0
CLASSIFICATION_TYPE = U
NORAD_CAT_ID   = 48274
ELEMENT_SET_NO = 999
REV_AT_EPOCH   = 27261
BSTAR          = .41781313E-3
MEAN_MOTION_DOT = .33602E-3
MEAN_MOTION_DDOT = 0

CCSDS_OMM_VERS = 2.0
CREATION_DATE  = 
ORIGINATOR     = 

OBJECT_NAME    = COSMOS 2550
OBJECT_ID      = 2021-056A
CENTER_NAME    = EARTH
REF_FRAME      = TEME
TIME_SYSTEM    = UTC
MEAN_ELEMENT_THEORY = SGP/SGP4

EPOCH          = 2026-02-05T16:42:17.240832
MEAN_MOTION    = 15.33834337
ECCENTRICITY   = .00082907
INCLINATION    = 67.1452
RA_OF_ASC_NODE = 137.7073
ARG_OF_PERICENTER = 269.7917
MEAN_ANOMALY   = 90.2287

EPHEMERIS_TYPE = 0
CLASSIFICATION_TYPE = U
NORAD_CAT_ID   = 48865
ELEMENT_SET_NO = 999
REV_AT_EPOCH   = 25855
BSTAR          = .56577013E-4
MEAN_MOTION_DOT = .167E-4
MEAN_MOTION_DDOT = 0

CCSDS_OMM_VERS = 2.0
CREATION_DATE  = 
ORIGINATOR     = 

OBJECT_NAME    = CZ-2C R/B
OBJECT_ID      = 2022-058K
CENTER_NAME    = EARTH
REF_FRAME      = TEME
TIME_SYSTEM    = UTC
MEAN_ELEMENT_THEORY = SGP/SGP4

EPOCH          = 2026-02-05T09:44:52.484064
MEAN_MOTION    = 15.51968467
ECCENTRICITY   = .00423678
INCLINATION    = 50.1890
RA_OF_ASC_NODE = 124.0666
ARG_OF_PERICENTER = 63.8858
MEAN_ANOMALY   = 296.6462

EPHEMERIS_TYPE = 0
CLASSIFICATION_TYPE = U
NORAD_CAT_ID   = 52794
ELEMENT_SET_NO = 999
REV_AT_EPOCH   = 20511
BSTAR          = .69408093E-3
MEAN_MOTION_DOT = .43938E-3
MEAN_MOTION_DDOT = 0

